NORAD_CAT_ID,OBJECT_NAME,OBJECT_TYPE,EPOCH,MEAN_MOTION,ECCENTRICITY,INCLINATION,RA_OF_ASC_NODE,ARG_OF_PERICENTER,MEAN_ANOMALY,BSTAR,MEAN_MOTION_DOT,MEAN_MOTION_DDOT,TLE_LINE0,TLE_LINE1,TLE_LINE2,SEMIMAJOR_AXIS,PERIOD,APOGEE,PERIGEE,DECAYED
56479.0,STARLINK-6044,PAYLOAD,2023-10-05 14:00:01,14.98283285,0.0003067,70.0008,198.4898,269.2639,65.0923,0.0060426,0.00072671,0.0,0 STARLINK-6044,1 56479U 23064AH  23278.58334491  .00072671  00000-0  60426-2 0  9998,2 56479  70.0008 198.4898 0003067 269.2639  65.0923 14.98283285 23378,6950.337,96.11,574.334,570.071,0.0
56479.0,STARLINK-6044,PAYLOAD,2023-10-05 22:00:00,14.98367726,0.0003151,70.0009,197.6495,270.3119,61.5035,-0.0026155,-0.00031193,0.0,0 STARLINK-6044,1 56479U 23064AH  23278.91667824 -.00031193  00000-0 -26155-2 0  9991,2 56479  70.0009 197.6495 0003151 270.3119  61.5035 14.98367726  5898,6950.076,96.105,574.131,569.751,0.0
56479.0,STARLINK-6044,PAYLOAD,2023-10-06 02:55:57,14.98335211,0.0002289,70.0002,197.1321,262.7365,97.3534,-2.6337e-05,-4.07e-06,0.0,0 STARLINK-6044,1 56479U 23064AH  23279.12219451 -.00000407  00000-0 -26337-4 0  9992,2 56479  70.0002 197.1321 0002289 262.7365  97.3534 14.98335211 23450,6950.177,96.107,573.633,570.451,0.0
56479.0,STARLINK-6044,PAYLOAD,2023-10-06 06:08:13,14.98340411,0.0002464,69.9998,196.7954,264.6402,95.4476,5.0776e-05,5.13e-06,0.0,0 STARLINK-6044,1 56479U 23064AH  23279.25570858  .00000513  00000-0  50776-4 0  9997,2 56479  69.9998 196.7954 0002464 264.6402  95.4476 14.98340411 23470,6950.161,96.106,573.738,570.313,0.0
56479.0,STARLINK-6044,PAYLOAD,2023-10-06 12:32:46,14.98319219,0.0002224,70.001,196.1233,290.3457,69.7463,0.00013761,1.549e-05,0.0,0 STARLINK-6044,1 56479U 23064AH  23279.52275973  .00001549  00000-0  13761-3 0  9999,2 56479  70.0010 196.1233 0002224 290.3457  69.7463 14.98319219 23159,6950.226,96.108,573.637,570.546,0.0
56479.0,STARLINK-6044,PAYLOAD,2023-10-06 18:57:18,14.98320476,0.0002314,70.0007,195.4501,289.7584,70.3326,0.00013791,1.553e-05,0.0,0 STARLINK-6044,1 56479U 23064AH  23279.78980019  .00001553  00000-0  13791-3 0  9999,2 56479  70.0007 195.4501 0002314 289.7584  70.3326 14.98320476 23555,6950.222,96.108,573.696,570.479,0.0
56479.0,STARLINK-6044,PAYLOAD,2023-10-06 20:33:26,14.98317566,0.0002426,70.001,195.281,284.8056,75.2835,0.00011832,1.319e-05,0.0,0 STARLINK-6044,1 56479U 23064AH  23279.85656234  .00001319  00000-0  11832-3 0  9990,2 56479  70.0010 195.2810 0002426 284.8056  75.2835 14.98317566 23201,6950.231,96.108,573.782,570.41,0.0
56479.0,STARLINK-6044,PAYLOAD,2023-10-07 04:34:07,14.98320024,0.0002747,70.0001,194.4387,274.9543,85.1303,0.00011591,1.29e-05,0.0,0 STARLINK-6044,1 56479U 23064AH  23280.19036187  .00001290  00000-0  11591-3 0  9998,2 56479  70.0001 194.4387 0002747 274.9543  85.1303 14.98320024 23256,6950.224,96.108,573.998,570.18,0.0
56479.0,STARLINK-6044,PAYLOAD,2023-10-07 18:59:19,14.98324495,0.000283,69.9999,192.9243,275.132,84.9516,4.2782e-05,4.17e-06,0.0,0 STARLINK-6044,1 56479U 23064AH  23280.79120149  .00000417  00000-0  42782-4 0  9993,2 56479  69.9999 192.9243 0002830 275.1320  84.9516 14.98324495 23701,6950.21,96.107,574.042,570.108,0.0
56479.0,STARLINK-6044,PAYLOAD,2023-10-07 22:11:35,14.9832459,0.0002866,70.0002,192.5877,274.8685,85.2147,5.4626e-05,5.59e-06,0.0,0 STARLINK-6044,1 56479U 23064AH  23280.92472140  .00000559  00000-0  54626-4 0  9996,2 56479  70.0002 192.5877 0002866 274.8685  85.2147 14.98324590 23369,6950.21,96.107,574.067,570.083,0.0
56479.0,STARLINK-6044,PAYLOAD,2023-10-08 04:36:07,14.98332262,0.0002684,70.0004,191.9149,273.4551,86.6301,0.00011179,1.241e-05,0.0,0 STARLINK-6044,1 56479U 23064AH  23281.19175528  .00001241  00000-0  11179-3 0  9990,2 56479  70.0004 191.9149 0002684 273.4551  86.6301 14.98332262 23767,6950.186,96.107,573.916,570.185,0.0
56479.0,STARLINK-6044,PAYLOAD,2023-10-08 11:00:39,14.98348094,0.0002613,70.001,191.2405,270.4753,89.6106,-0.00022568,-2.786e-05,0.0,0 STARLINK-6044,1 56479U 23064AH  23281.45879279 -.00002786  00000-0 -22568-3 0  9994,2 56479  70.0010 191.2405 0002613 270.4753  89.6106 14.98348094 23446,6950.137,96.106,573.818,570.186,0.0
56479.0,STARLINK-6044,PAYLOAD,2023-10-08 20:37:28,14.98327815,0.000283,70.001,190.2314,272.5877,87.4958,0.00010746,1.189e-05,0.0,0 STARLINK-6044,1 56479U 23064AH  23281.85935648  .00001189  00000-0  10746-3 0  9990,2 56479  70.0010 190.2314 0002830 272.5877  87.4958 14.98327815 23501,6950.2,96.107,574.032,570.098,0.0
56479.0,STARLINK-6044,PAYLOAD,2023-10-09 04:38:08,14.98334057,0.0002837,70.0006,189.3895,273.2149,86.8686,0.00014843,1.679e-05,0.0,0 STARLINK-6044,1 56479U 23064AH  23282.19315092  .00001679  00000-0  14843-3 0  9999,2 56479  70.0006 189.3895 0002837 273.2149  86.8686 14.98334057 23918,6950.18,96.107,574.017,570.074,0.0
56479.0,STARLINK-6044,PAYLOAD,2023-10-09 11:02:40,14.98338018,0.0003323,69.9995,188.7156,277.9156,82.1626,-0.00027342,-3.355e-05,0.0,0 STARLINK-6044,1 56479U 23064AH  23282.46019653 -.00003355  00000-0 -27342-3 0  9996,2 56479  69.9995 188.7156 0003323 277.9156  82.1626 14.98338018 23593,6950.168,96.106,574.343,569.724,0.0
56479.0,STARLINK-6044,PAYLOAD,2023-10-09 19:03:21,14.98323565,0.0002545,70.001,187.8751,267.9216,92.1651,-7.7046e-05,-1.012e-05,0.0,0 STARLINK-6044,1 56479U 23064AH  23282.79400355 -.00001012  00000-0 -77046-4 0  9990,2 56479  70.0010 187.8751 0002545 267.9216  92.1651 14.98323565 24003,6950.213,96.107,573.847,570.309,0.0
56479.0,STARLINK-6044,PAYLOAD,2023-10-09 20:39:30,14.9832267,0.0002636,70.0007,187.7068,270.0029,90.0828,-8.6698e-05,-1.127e-05,0.0,0 STARLINK-6044,1 56479U 23064AH  23282.86076452 -.00001127  00000-0 -86698-4 0  9995,2 56479  70.0007 187.7068 0002636 270.0029  90.0828 14.98322670 23656,6950.216,96.107,573.913,570.248,0.0
56479.0,STARLINK-6044,PAYLOAD,2023-10-10 03:04:01,14.98330218,0.0003106,69.9994,187.0324,272.5488,87.5315,-1.8584e-05,-3.15e-06,0.0,0 STARLINK-6044,1 56479U 23064AH  23283.12779758 -.00000315  00000-0 -18584-4 0  9991,2 56479  69.9994 187.0324 0003106 272.5488  87.5315 14.98330218 24059,6950.192,96.107,574.216,569.898,0.0
56479.0,STARLINK-6044,PAYLOAD,2023-10-10 11:04:42,14.98325096,0.0002259,70.0013,186.1891,282.631,77.4597,-0.00015885,-1.987e-05,0.0,0 STARLINK-6044,1 56479U 23064AH  23283.46160741 -.00001987  00000-0 -15885-3 0  9990,2 56479  70.0013 186.1891 0002259 282.6310  77.4597 14.98325096 23740,6950.208,96.107,573.643,570.503,0.0
56479.0,STARLINK-6044,PAYLOAD,2023-10-10 19:05:22,14.98316338,0.0003323,69.9992,185.3463,269.7915,90.2864,6.3336e-05,6.62e-06,0.0,0 STARLINK-6044,1 56479U 23064AH  23283.79540367  .00000662  00000-0  63336-4 0  9994,2 56479  69.9992 185.3463 0003323 269.7915  90.2864 14.98316338 24154,6950.235,96.108,574.41,569.791,0.0
56479.0,STARLINK-6044,PAYLOAD,2023-10-10 20:41:30,14.98325866,0.0002837,69.9995,185.1791,271.4732,88.6102,-4.6448e-05,-6.47e-06,0.0,0 STARLINK-6044,1 56479U 23064AH  23283.86216222 -.00000647  00000-0 -46448-4 0  9992,2 56479  69.9995 185.1791 0002837 271.4732  88.6102 14.98325866 23808,6950.206,96.107,574.042,570.099,0.0
56479.0,STARLINK-6044,PAYLOAD,2023-10-11 03:06:02,14.98332802,0.0002858,69.9997,184.5058,263.9791,96.1043,-2.1695e-05,-3.52e-06,0.0,0 STARLINK-6044,1 56479U 23064AH  23284.12919685 -.00000352  00000-0 -21695-4 0  9995,2 56479  69.9997 184.5058 0002858 263.9791  96.1043 14.98332802 24204,6950.184,96.107,574.036,570.063,0.0
56479.0,STARLINK-6044,PAYLOAD,2023-10-11 11:06:43,14.9833055,0.0002728,70.0001,183.6653,267.7289,92.3558,-3.4383e-05,-5.03e-06,0.0,0 STARLINK-6044,1 56479U 23064AH  23284.46299916 -.00000503  00000-0 -34383-4 0  9996,2 56479  70.0001 183.6653 0002728 267.7289  92.3558 14.98330550 23895,6950.191,96.107,573.952,570.16,0.0
56479.0,STARLINK-6044,PAYLOAD,2023-10-11 19:07:23,14.98320051,0.0002916,69.9995,182.8239,271.8615,88.221,5.8071e-05,6e-06,0.0,0 STARLINK-6044,1 56479U 23064AH  23284.79680416  .00000600  00000-0  58071-4 0  9997,2 56479  69.9995 182.8239 0002916 271.8615  88.2210 14.98320051 24304,6950.224,96.108,574.115,570.062,0.0
56479.0,STARLINK-6044,PAYLOAD,2023-10-12 03:08:03,14.98327869,0.0002662,69.9999,181.9827,263.9784,96.1072,8.4814e-05,9.19e-06,0.0,0 STARLINK-6044,1 56479U 23064AH  23285.13059972  .00000919  00000-0  84814-4 0  9990,2 56479  69.9999 181.9827 0002662 263.9784  96.1072 14.98327869 24351,6950.199,96.107,573.915,570.214,0.0
56479.0,STARLINK-6044,PAYLOAD,2023-10-12 11:08:44,14.98316037,0.0002662,70.0002,181.1409,257.8897,102.1964,0.00028725,3.335e-05,0.0,0 STARLINK-6044,1 56479U 23064AH  23285.46440303  .00003335  00000-0  28725-3 0  9991,2 56479  70.0002 181.1409 0002662 257.8897 102.1964 14.98316037 24043,6950.236,96.108,573.951,570.251,0.0
56479.0,STARLINK-6044,PAYLOAD,2023-10-12 20:45:32,14.98330478,0.0002775,69.9998,180.1311,270.5587,89.5254,6.2191e-05,6.49e-06,0.0,0 STARLINK-6044,1 56479U 23064AH  23285.86495907  .00000649  00000-0  62191-4 0  9996,2 56479  69.9998 180.1311 0002775 270.5587  89.5254 14.98330478 24100,6950.191,96.107,573.985,570.128,0.0
56479.0,STARLINK-6044,PAYLOAD,2023-10-13 03:10:04,14.98335316,0.000274,70.0,179.4582,266.5537,93.5308,0.00010475,1.157e-05,0.0,0 STARLINK-6044,1 56479U 23064AH  23286.13199408  .00001157  00000-0  10475-3 0  9996,2 56479  70.0000 179.4582 0002740 266.5537  93.5308 14.98335316 24505,6950.176,96.107,573.946,570.137,0.0
56479.0,STARLINK-6044,PAYLOAD,2023-10-13 20:47:33,14.9833496,0.0002559,70.0001,177.6069,274.1804,85.9062,1.0758e-05,3.5e-07,0.0,0 STARLINK-6044,1 56479U 23064AH  23286.86635562  .00000035  00000-0  10758-4 0  9991,2 56479  70.0001 177.6069 0002559 274.1804  85.9062 14.98334960 24254,6950.178,96.107,573.821,570.264,0.0
56479.0,STARLINK-6044,PAYLOAD,2023-10-14 03:12:04,14.98341213,0.0002671,70.0002,176.9336,274.302,85.7833,0.00017567,2.004e-05,0.0,0 STARLINK-6044,1 56479U 23064AH  23287.13338548  .00002004  00000-0  17567-3 0  9998,2 56479  70.0002 176.9336 0002671 274.3020  85.7833 14.98341213 24658,6950.158,96.106,573.88,570.167,0.0
